{
  "type": "FeatureCollection",
  "features": [
    {
      "type": "Feature",
      "properties": {
        "norad_id": 40894,
        "name": "GAOFEN-9 01",
        "group": "resource",
        "lat": -31.69166770558668,
        "lon": -167.75778592763513,
        "alt_km": 645.2611014086615,
        "timestamp": "2025-12-03T15:48:02.758927+00:00",
        "meta_object_name": "GAOFEN-9 01",
        "meta_object_id": "2015-047A",
        "meta_epoch": "2025-12-03T08:22:11.350272",
        "meta_mean_motion": 14.82383427,
        "meta_eccentricity": 0.00289365,
        "meta_inclination": 97.6556,
        "meta_ra_of_asc_node": 16.7096,
        "meta_arg_of_pericenter": 63.8772,
        "meta_mean_anomaly": 296.5414,
        "meta_ephemeris_type": 0,
        "meta_classification_type": "U",
        "meta_norad_cat_id": 40894,
        "meta_element_set_no": 999,
        "meta_rev_at_epoch": 55117,
        "meta_bstar": 0.00022700091,
        "meta_mean_motion_dot": 1.779e-05,
        "meta_mean_motion_ddot": 0,
        "tle_line1": "1 40894U 15047A   25337.34874248  .00001779  00000+0  22700-3 0  9999",
        "tle_line2": "2 40894  97.6556  16.7096 0028936  63.8772 296.5414 14.82383427551177"
      },
      "geometry": {
        "type": "Point",
        "coordinates": [
          -167.75778592763513,
          -31.69166770558668
        ]
      }
    },
    {
      "type": "Feature",
      "properties": {
        "norad_id": 41026,
        "name": "YAOGAN-28",
        "group": "resource",
        "lat": 75.73778756538728,
        "lon": 85.51682219843441,
        "alt_km": 484.65987211241736,
        "timestamp": "2025-12-03T15:48:02.758936+00:00",
        "meta_object_name": "YAOGAN-28",
        "meta_object_id": "2015-064A",
        "meta_epoch": "2025-12-03T09:09:28.334016",
        "meta_mean_motion": 15.24093338,
        "meta_eccentricity": 0.00119487,
        "meta_inclination": 97.2798,
        "meta_ra_of_asc_node": 115.44,
        "meta_arg_of_pericenter": 157.008,
        "meta_mean_anomaly": 203.1695,
        "meta_ephemeris_type": 0,
        "meta_classification_type": "U",
        "meta_norad_cat_id": 41026,
        "meta_element_set_no": 999,
        "meta_rev_at_epoch": 56082,
        "meta_bstar": 0.00047531091,
        "meta_mean_motion_dot": 0.00011505,
        "meta_mean_motion_ddot": 0,
        "tle_line1": "1 41026U 15064A   25337.38157794  .00011505  00000+0  47531-3 0  9997",
        "tle_line2": "2 41026  97.2798 115.4400 0011948 157.0080 203.1695 15.24093338560821"
      },
      "geometry": {
        "type": "Point",
        "coordinates": [
          85.51682219843441,
          75.73778756538728
        ]
      }
    },
    {
      "type": "Feature",
      "properties": {
        "norad_id": 41038,
        "name": "YAOGAN-29",
        "group": "resource",
        "lat": 79.9426784814788,
        "lon": -51.876853031570775,
        "alt_km": 612.7838698702171,
        "timestamp": "2025-12-03T15:48:02.758945+00:00",
        "meta_object_name": "YAOGAN-29",
        "meta_object_id": "2015-069A",
        "meta_epoch": "2025-12-03T08:56:45.187872",
        "meta_mean_motion": 14.82865731,
        "meta_eccentricity": 7.66e-05,
        "meta_inclination": 98.0228,
        "meta_ra_of_asc_node": 0.514,
        "meta_arg_of_pericenter": 7.4265,
        "meta_mean_anomaly": 352.696,
        "meta_ephemeris_type": 0,
        "meta_classification_type": "U",
        "meta_norad_cat_id": 41038,
        "meta_element_set_no": 999,
        "meta_rev_at_epoch": 54160,
        "meta_bstar": 0.00010395053,
        "meta_mean_motion_dot": 7.88e-06,
        "meta_mean_motion_ddot": 0,
        "tle_line1": "1 41038U 15069A   25337.37274523  .00000788  00000+0  10395-3 0  9993",
        "tle_line2": "2 41038  98.0228   0.5140 0000766   7.4265 352.6960 14.82865731541602"
      },
      "geometry": {
        "type": "Point",
        "coordinates": [
          -51.876853031570775,
          79.9426784814788
        ]
      }
    },
    {
      "type": "Feature",
      "properties": {
        "norad_id": 41167,
        "name": "KENT RIDGE 1",
        "group": "resource",
        "lat": -4.137234888743257,
        "lon": -97.16990151299306,
        "alt_km": 493.35210315280074,
        "timestamp": "2025-12-03T15:48:02.758954+00:00",
        "meta_object_name": "KENT RIDGE 1",
        "meta_object_id": "2015-077B",
        "meta_epoch": "2025-12-03T04:51:29.321280",
        "meta_mean_motion": 15.21515134,
        "meta_eccentricity": 0.00086777,
        "meta_inclination": 14.9806,
        "meta_ra_of_asc_node": 281.9029,
        "meta_arg_of_pericenter": 355.7263,
        "meta_mean_anomaly": 4.2984,
        "meta_ephemeris_type": 0,
        "meta_classification_type": "U",
        "meta_norad_cat_id": 41167,
        "meta_element_set_no": 999,
        "meta_rev_at_epoch": 55118,
        "meta_bstar": 0.0002495538,
        "meta_mean_motion_dot": 6.551e-05,
        "meta_mean_motion_ddot": 0,
        "tle_line1": "1 41167U 15077B   25337.20242270  .00006551  00000+0  24955-3 0  9992",
        "tle_line2": "2 41167  14.9806 281.9029 0008677 355.7263   4.2984 15.21515134551184"
      },
      "geometry": {
        "type": "Point",
        "coordinates": [
          -97.16990151299306,
          -4.137234888743257
        ]
      }
    },
    {
      "type": "Feature",
      "properties": {
        "norad_id": 41194,
        "name": "GAOFEN-4",
        "group": "resource",
        "lat": -0.0331990172206871,
        "lon": 55.38324382839647,
        "alt_km": 35795.66908034847,
        "timestamp": "2025-12-03T15:48:02.758967+00:00",
        "meta_object_name": "GAOFEN-4",
        "meta_object_id": "2015-083A",
        "meta_epoch": "2025-12-03T07:24:34.696224",
        "meta_mean_motion": 1.00273652,
        "meta_eccentricity": 0.00037394,
        "meta_inclination": 0.1444,
        "meta_ra_of_asc_node": 80.7116,
        "meta_arg_of_pericenter": 104.186,
        "meta_mean_anomaly": 104.3292,
        "meta_ephemeris_type": 0,
        "meta_classification_type": "U",
        "meta_norad_cat_id": 41194,
        "meta_element_set_no": 999,
        "meta_rev_at_epoch": 3656,
        "meta_bstar": 0,
        "meta_mean_motion_dot": -3.16e-06,
        "meta_mean_motion_ddot": 0,
        "tle_line1": "1 41194U 15083A   25337.30873491 -.00000316  00000+0  00000+0 0  9990",
        "tle_line2": "2 41194   0.1444  80.7116 0003739 104.1860 104.3292  1.00273652 36566"
      },
      "geometry": {
        "type": "Point",
        "coordinates": [
          55.38324382839647,
          -0.0331990172206871
        ]
      }
    },
    {
      "type": "Feature",
      "properties": {
        "norad_id": 41240,
        "name": "JASON-3",
        "group": "resource",
        "lat": -18.83861486069028,
        "lon": 168.1914459710723,
        "alt_km": 1313.0448929467775,
        "timestamp": "2025-12-03T15:48:02.758976+00:00",
        "meta_object_name": "JASON-3",
        "meta_object_id": "2016-002A",
        "meta_epoch": "2025-12-03T06:35:15.064224",
        "meta_mean_motion": 12.87626005,
        "meta_eccentricity": 0.00071434,
        "meta_inclination": 66.0392,
        "meta_ra_of_asc_node": 177.7243,
        "meta_arg_of_pericenter": 270.3231,
        "meta_mean_anomaly": 89.6969,
        "meta_ephemeris_type": 0,
        "meta_classification_type": "U",
        "meta_norad_cat_id": 41240,
        "meta_element_set_no": 999,
        "meta_rev_at_epoch": 46202,
        "meta_bstar": 0.0002114461,
        "meta_mean_motion_dot": -9e-08,
        "meta_mean_motion_ddot": 0,
        "tle_line1": "1 41240U 16002A   25337.27447991 -.00000009  00000+0  21145-3 0  9998",
        "tle_line2": "2 41240  66.0392 177.7243 0007143 270.3231  89.6969 12.87626005462021"
      },
      "geometry": {
        "type": "Point",
        "coordinates": [
          168.1914459710723,
          -18.83861486069028
        ]
      }
    },
    {
      "type": "Feature",
      "properties": {
        "norad_id": 41335,
        "name": "SENTINEL-3A",
        "group": "resource",
        "lat": 4.508246448144266,
        "lon": -136.51302204182616,
        "alt_km": 804.9033530347788,
        "timestamp": "2025-12-03T15:48:02.758986+00:00",
        "meta_object_name": "SENTINEL-3A",
        "meta_object_id": "2016-011A",
        "meta_epoch": "2025-12-03T08:14:57.420096",
        "meta_mean_motion": 14.267407,
        "meta_eccentricity": 9.948e-05,
        "meta_inclination": 98.622,
        "meta_ra_of_asc_node": 42.4916,
        "meta_arg_of_pericenter": 91.189,
        "meta_mean_anomaly": 268.9404,
        "meta_ephemeris_type": 0,
        "meta_classification_type": "U",
        "meta_norad_cat_id": 41335,
        "meta_element_set_no": 999,
        "meta_rev_at_epoch": 51013,
        "meta_bstar": 0.00011692715,
        "meta_mean_motion_dot": 2.39e-06,
        "meta_mean_motion_ddot": 0,
        "tle_line1": "1 41335U 16011A   25337.34372014  .00000239  00000+0  11693-3 0  9995",
        "tle_line2": "2 41335  98.6220  42.4916 0000994  91.1890 268.9404 14.26740700510135"
      },
      "geometry": {
        "type": "Point",
        "coordinates": [
          -136.51302204182616,
          4.508246448144266
        ]
      }
    }
  ]
}